OBJECT_NAME,OBJECT_ID,EPOCH,MEAN_MOTION,ECCENTRICITY,INCLINATION,RA_OF_ASC_NODE,ARG_OF_PERICENTER,MEAN_ANOMALY,EPHEMERIS_TYPE,CLASSIFICATION_TYPE,NORAD_CAT_ID,ELEMENT_SET_NO,REV_AT_EPOCH,BSTAR,MEAN_MOTION_DOT,MEAN_MOTION_DDOT
LEMUR-2-CELIJO-SB-PK,2025-276DW,2026-06-15T04:02:54.757248,14.99960172,.00088759,97.5265,237.0118,137.4697,222.7216,0,U,66781,999,2232,.46115214E-3,.5677E-4,0
LEMUR-2-FINNIAN,2025-276DX,2026-06-15T03:30:32.594112,15.00356381,.00088499,97.5284,237.2022,95.4882,264.7352,0,U,66782,999,1969,.5174608E-3,.6445E-4,0
LEMUR-2-STARLIGHT,2025-276DY,2026-06-15T04:01:10.093152,14.99024058,.00152309,97.5273,236.8750,133.6265,226.6225,0,U,66783,999,2989,.35885605E-3,.4304E-4,0
LEMUR-2-TARTIFLETTE,2025-276DZ,2026-06-15T03:59:01.931712,14.99054388,.00140076,97.5278,236.8803,139.9151,220.3108,0,U,66784,999,2989,.35744946E-3,.4289E-4,0
LEMUR-2-VUKASIN,2025-276EA,2026-06-15T03:52:24.966912,15.00349087,.00062262,97.5315,237.1668,129.0915,231.0864,0,U,66785,999,2984,.39403525E-3,.489E-4,0
LEMUR-2-HOTSPUR-TOM,2025-276EB,2026-06-15T03:48:07.127712,14.98941006,.00155652,97.5270,236.8542,133.6893,226.5623,0,U,66786,999,2982,.44933717E-3,.5394E-4,0
LEMUR-2-MYRA,2025-276EC,2026-06-15T04:37:29.834688,15.00219246,.0016356,97.5221,237.1389,147.9911,212.2310,0,U,66787,999,2991,.49824273E-3,.6193E-4,0
LEMUR-2 FIKRETDENGIZ,2026-004A,2026-06-14T23:35:23.760096,14.88310958,.00099189,97.8008,164.5746,139.4457,220.7500,0,U,67363,999,2295,.35794056E-3,.3259E-4,0
TWILIGHT-1 OBJECT B,2026-004B,2026-06-14T22:32:26.562048,14.87695274,.0009809,97.8061,164.5479,130.6405,229.5666,0,U,67364,999,2295,.18369E-3,.162E-4,0
LEMUR-2-MARIO-SOUSA,2026-004C,2026-06-15T05:39:24.778944,14.88500544,.00094929,97.7985,164.8201,138.9098,221.2836,0,U,67365,999,2300,.34645975E-3,.3167E-4,0
LEMUR-2-SONNENBLUME,2026-004E,2026-06-14T23:09:28.419264,14.88306685,.00089889,97.7980,164.5388,141.4997,218.6863,0,U,67367,999,2296,.26705061E-3,.2417E-4,0
LEMUR-2-WOBLER,2026-004F,2026-06-14T23:00:31.518432,14.88504889,.0009475,97.8033,164.6527,131.7141,228.4887,0,U,67368,999,2296,.371E-3,.3396E-4,0
LEMUR-2-GRAM-E-SUE,2026-004H,2026-06-14T22:46:57.849024,14.88463007,.0008067,97.7968,164.5383,142.2203,217.9582,0,U,67370,999,2296,.26683E-3,.2424E-4,0
LEMUR-2-KATIE,2026-004AA,2026-06-15T00:08:44.868768,14.90035980,.00048244,97.8032,165.0465,97.8741,262.3025,0,U,67387,999,2298,.36416998E-3,.346E-4,0
LEMUR-2-HCS-BAZUS,2026-004AB,2026-06-15T00:07:26.091840,14.90051560,.00043947,97.8015,165.0264,94.4950,265.6769,0,U,67388,999,2298,.5418868E-3,.5179E-4,0
